IRIDIUM 63              
1 25286U 98021B   25054.14825006  .00000743  00000+0  24728-3 0  9994
2 25286  86.4005 129.9807 0002021  95.4630 264.6798 14.36390710407744
IRIDIUM 69              
1 25319U 98026A   25053.53727259  .00001065  00000+0  32708-3 0  9994
2 25319  86.4026 143.8603 0003976  68.5762 291.5861 14.40773863406557
IRIDIUM 71              
1 25320U 98026B   25054.18489506  .00000878  00000+0  26739-3 0  9996
2 25320  86.4013 138.3031 0004303  99.5757 260.5929 14.40988786407422
IRIDIUM 82              
1 25467U 98051A   25053.35521000  .00030709  00000+0  10712-2 0  9999
2 25467  86.3754 165.8609 0097916  11.4811 348.8634 15.24924812406411
